0 CZ-4B DEB
1 35572U 08053H   13282.28169215  .00037916  00000-0  21734-2 0  6192
2 35572 097.6122 299.1138 0082552 349.0266 066.1151 15.09574682260528
0 CZ-4B DEB
1 35572U 08053H   13283.00507760  .00030735  00000-0  17626-2 0  6203
2 35572 097.6123 299.8322 0082405 346.5458 037.3910 15.09615198260636
0 CZ-4B DEB
1 35572U 08053H   13284.00043671  .00029764  00000-0  17057-2 0  6219
2 35572 097.6126 300.8205 0082178 343.1637 046.8583 15.09663452260784
0 CZ-4B DEB
1 35572U 08053H   13285.26497950  .00025636  00000-0  14687-2 0  6222
2 35572 097.6128 302.0763 0081892 338.8151 079.5553 15.09724873260979
0 CZ-4B DEB
1 35572U 08053H   13287.86159873  .00042981  00000-0  24479-2 0  6232
2 35572 097.6118 304.6561 0081392 329.6822 153.0658 15.09853260261372
0 CZ-4B DEB
1 35572U 08053H   13288.85578823  .00034553  00000-0  19674-2 0  6240
2 35572 097.6111 305.6438 0081240 326.1495 157.2311 15.09923680261522
0 CZ-4B DEB
1 35572U 08053H   13289.30875267  .00033633  00000-0  19145-2 0  6255
2 35572 097.6106 306.0939 0081149 324.5503 099.4939 15.09944636261580
0 CZ-4B DEB
1 35572U 08053H   13290.23656400  .00034425  00000-0  19572-2 0  6260
2 35572 097.6100 307.0156 0081045 321.2774 103.0880 15.09989929261722
0 CZ-4B DEB
1 35572U 08053H   13291.29491034  .00030270  00000-0  17200-2 0  6278
2 35572 097.6097 308.0670 0080881 317.5987 096.4180 15.10049621261883
0 CZ-4B DEB
1 35572U 08053H   13293.28367047  .00029762  00000-0  16873-2 0  6285
2 35572 097.6101 310.0425 0080573 310.6596 108.2139 15.10153433262185
0 CZ-4B DEB
1 35572U 08053H   13295.27081368  .00034080  00000-0  19264-2 0  6292
2 35572 097.6107 312.0167 0080192 303.7521 111.9290 15.10254380262489
